[{"OBJECT_NAME":"STARLINK-4778","OBJECT_ID":"2022-114U","EPOCH":"2025-09-26T12:19:17.263200","MEAN_MOTION":15.08840448,"ECCENTRICITY":0.00014255,"INCLINATION":53.2177,"RA_OF_ASC_NODE":311.342,"ARG_OF_PERICENTER":95.1239,"MEAN_ANOMALY":264.9915,"EPHEMERIS_TYPE":0,"CLASSIFICATION_TYPE":"U","NORAD_CAT_ID":53836,"ELEMENT_SET_NO":999,"REV_AT_EPOCH":16818,"BSTAR":5.9152717e-5,"MEAN_MOTION_DOT":6.54e-6,"MEAN_MOTION_DDOT":0},{"OBJECT_NAME":"STARLINK-4776","OBJECT_ID":"2022-114V","EPOCH":"2025-09-27T03:08:08.140128","MEAN_MOTION":15.08845269,"ECCENTRICITY":0.00015276,"INCLINATION":53.2179,"RA_OF_ASC_NODE":318.079,"ARG_OF_PERICENTER":82.0537,"MEAN_ANOMALY":278.0629,"EPHEMERIS_TYPE":0,"CLASSIFICATION_TYPE":"U","NORAD_CAT_ID":53837,"ELEMENT_SET_NO":999,"REV_AT_EPOCH":16814,"BSTAR":2.1418108e-5,"MEAN_MOTION_DOT":5.3e-7,"MEAN_MOTION_DDOT":0},{"OBJECT_NAME":"STARLINK-4773","OBJECT_ID":"2022-114W","EPOCH":"2025-09-26T10:38:35.858112","MEAN_MOTION":15.0884014,"ECCENTRICITY":0.00010046,"INCLINATION":53.2175,"RA_OF_ASC_NODE":311.6212,"ARG_OF_PERICENTER":83.3177,"MEAN_ANOMALY":276.7929,"EPHEMERIS_TYPE":0,"CLASSIFICATION_TYPE":"U","NORAD_CAT_ID":53838,"ELEMENT_SET_NO":999,"REV_AT_EPOCH":16817,"BSTAR":7.5448078e-5,"MEAN_MOTION_DOT":9.13e-6,"MEAN_MOTION_DDOT":0},{"OBJECT_NAME":"STARLINK-4784","OBJECT_ID":"2022-114X","EPOCH":"2025-09-26T09:13:49.216224","MEAN_MOTION":15.08838623,"ECCENTRICITY":0.00012775,"INCLINATION":53.2173,"RA_OF_ASC_NODE":311.9631,"ARG_OF_PERICENTER":91.1993,"MEAN_ANOMALY":268.9145,"EPHEMERIS_TYPE":0,"CLASSIFICATION_TYPE":"U","NORAD_CAT_ID":53839,"ELEMENT_SET_NO":999,"REV_AT_EPOCH":16816,"BSTAR":4.413998e-5,"MEAN_MOTION_DOT":4.15e-6,"MEAN_MOTION_DDOT":0},{"OBJECT_NAME":"STARLINK-4766","OBJECT_ID":"2022-114Y","EPOCH":"2025-09-27T07:04:04.755072","MEAN_MOTION":15.08835755,"ECCENTRICITY":0.0001298,"INCLINATION":53.2168,"RA_OF_ASC_NODE":307.6901,"ARG_OF_PERICENTER":88.4683,"MEAN_ANOMALY":271.6457,"EPHEMERIS_TYPE":0,"CLASSIFICATION_TYPE":"U","NORAD_CAT_ID":53840,"ELEMENT_SET_NO":999,"REV_AT_EPOCH":16830,"BSTAR":2.2481218e-5,"MEAN_MOTION_DOT":7.0e-7,"MEAN_MOTION_DDOT":0},{"OBJECT_NAME":"STARLINK-4750","OBJECT_ID":"2022-114Z","EPOCH":"2025-09-27T02:27:09.440640","MEAN_MOTION":15.08834483,"ECCENTRICITY":0.00015311,"INCLINATION":53.2178,"RA_OF_ASC_NODE":308.6252,"ARG_OF_PERICENTER":94.7253,"MEAN_ANOMALY":265.3914,"EPHEMERIS_TYPE":0,"CLASSIFICATION_TYPE":"U","NORAD_CAT_ID":53841,"ELEMENT_SET_NO":999,"REV_AT_EPOCH":16827,"BSTAR":3.7538756e-5,"MEAN_MOTION_DOT":3.09e-6,"MEAN_MOTION_DDOT":0},{"OBJECT_NAME":"STARLINK-4754","OBJECT_ID":"2022-114AA","EPOCH":"2025-09-27T03:41:19.073472","MEAN_MOTION":15.08835847,"ECCENTRICITY":9.258e-5,"INCLINATION":53.2175,"RA_OF_ASC_NODE":308.2334,"ARG_OF_PERICENTER":42.0254,"MEAN_ANOMALY":318.0809,"EPHEMERIS_TYPE":0,"CLASSIFICATION_TYPE":"U","NORAD_CAT_ID":53842,"ELEMENT_SET_NO":999,"REV_AT_EPOCH":16828,"BSTAR":4.6100766e-5,"MEAN_MOTION_DOT":4.46e-6,"MEAN_MOTION_DDOT":0},{"OBJECT_NAME":"STARLINK-4769","OBJECT_ID":"2022-114AB","EPOCH":"2025-09-27T02:21:50.737824","MEAN_MOTION":15.08837475,"ECCENTRICITY":0.00015221,"INCLINATION":53.2184,"RA_OF_ASC_NODE":308.5999,"ARG_OF_PERICENTER":88.621,"MEAN_ANOMALY":271.4956,"EPHEMERIS_TYPE":0,"CLASSIFICATION_TYPE":"U","NORAD_CAT_ID":53843,"ELEMENT_SET_NO":999,"REV_AT_EPOCH":16827,"BSTAR":3.3558885e-5,"MEAN_MOTION_DOT":2.46e-6,"MEAN_MOTION_DDOT":0},{"OBJECT_NAME":"STARLINK-4745","OBJECT_ID":"2022-114AC","EPOCH":"2025-09-27T06:41:28.446144","MEAN_MOTION":15.08839276,"ECCENTRICITY":0.00011029,"INCLINATION":53.2171,"RA_OF_ASC_NODE":307.5945,"ARG_OF_PERICENTER":84.5158,"MEAN_ANOMALY":275.596,"EPHEMERIS_TYPE":0,"CLASSIFICATION_TYPE":"U","NORAD_CAT_ID":53844,"ELEMENT_SET_NO":999,"REV_AT_EPOCH":16830,"BSTAR":0.00011226087,"MEAN_MOTION_DOT":1.499e-5,"MEAN_MOTION_DDOT":0},{"OBJECT_NAME":"STARLINK-4753","OBJECT_ID":"2022-114AD","EPOCH":"2025-09-27T06:57:23.304384","MEAN_MOTION":15.08841518,"ECCENTRICITY":0.0001285,"INCLINATION":53.2172,"RA_OF_ASC_NODE":307.6826,"ARG_OF_PERICENTER":88.5923,"MEAN_ANOMALY":271.5217,"EPHEMERIS_TYPE":0,"CLASSIFICATION_TYPE":"U","NORAD_CAT_ID":53845,"ELEMENT_SET_NO":999,"REV_AT_EPOCH":16830,"BSTAR":7.5775313e-5,"MEAN_MOTION_DOT":9.18e-6,"MEAN_MOTION_DDOT":0},{"OBJECT_NAME":"STARLINK-4746","OBJECT_ID":"2022-114AE","EPOCH":"2025-09-27T06:30:51.686784","MEAN_MOTION":15.08834363,"ECCENTRICITY":0.0001432,"INCLINATION":53.2172,"RA_OF_ASC_NODE":307.5474,"ARG_OF_PERICENTER":94.5002,"MEAN_ANOMALY":265.6154,"EPHEMERIS_TYPE":0,"CLASSIFICATION_TYPE":"U","NORAD_CAT_ID":53846,"ELEMENT_SET_NO":999,"REV_AT_EPOCH":16830,"BSTAR":1.0428112e-5,"MEAN_MOTION_DOT":-1.22e-6,"MEAN_MOTION_DDOT":0},{"OBJECT_NAME":"STARLINK-4777","OBJECT_ID":"2022-114AF","EPOCH":"2025-09-27T06:46:47.067744","MEAN_MOTION":15.08835067,"ECCENTRICITY":0.00013305,"INCLINATION":53.2176,"RA_OF_ASC_NODE":307.6153,"ARG_OF_PERICENTER":85.8584,"MEAN_ANOMALY":274.2561,"EPHEMERIS_TYPE":0,"CLASSIFICATION_TYPE":"U","NORAD_CAT_ID":53847,"ELEMENT_SET_NO":999,"REV_AT_EPOCH":16830,"BSTAR":6.7322625e-5,"MEAN_MOTION_DOT":7.84e-6,"MEAN_MOTION_DDOT":0},{"OBJECT_NAME":"STARLINK-4780","OBJECT_ID":"2022-114AG","EPOCH":"2025-09-27T06:20:15.811296","MEAN_MOTION":15.08823384,"ECCENTRICITY":0.00012226,"INCLINATION":53.217,"RA_OF_ASC_NODE":307.5035,"ARG_OF_PERICENTER":70.7534,"MEAN_ANOMALY":289.359,"EPHEMERIS_TYPE":0,"CLASSIFICATION_TYPE":"U","NORAD_CAT_ID":53848,"ELEMENT_SET_NO":999,"REV_AT_EPOCH":16830,"BSTAR":-0.00010434884,"MEAN_MOTION_DOT":-1.947e-5,"MEAN_MOTION_DDOT":0},{"OBJECT_NAME":"STARLINK-4770","OBJECT_ID":"2022-114AH","EPOCH":"2025-09-27T06:36:10.812960","MEAN_MOTION":15.08853527,"ECCENTRICITY":0.00016819,"INCLINATION":53.2171,"RA_OF_ASC_NODE":307.5706,"ARG_OF_PERICENTER":76.182,"MEAN_ANOMALY":283.9359,"EPHEMERIS_TYPE":0,"CLASSIFICATION_TYPE":"U","NORAD_CAT_ID":53849,"ELEMENT_SET_NO":999,"REV_AT_EPOCH":16830,"BSTAR":0.0003960701,"MEAN_MOTION_DOT":6.023e-5,"MEAN_MOTION_DDOT":0},{"OBJECT_NAME":"STARLINK-4767","OBJECT_ID":"2022-114AJ","EPOCH":"2025-09-27T06:04:19.846272","MEAN_MOTION":15.08834109,"ECCENTRICITY":0.00014678,"INCLINATION":53.2167,"RA_OF_ASC_NODE":307.4348,"ARG_OF_PERICENTER":97.2922,"MEAN_ANOMALY":262.8237,"EPHEMERIS_TYPE":0,"CLASSIFICATION_TYPE":"U","NORAD_CAT_ID":53850,"ELEMENT_SET_NO":999,"REV_AT_EPOCH":16830,"BSTAR":-2.2404826e-5,"MEAN_MOTION_DOT":-6.44e-6,"MEAN_MOTION_DDOT":0},{"OBJECT_NAME":"STARLINK-4755","OBJECT_ID":"2022-114AK","EPOCH":"2025-09-27T06:25:33.432384","MEAN_MOTION":15.08835476,"ECCENTRICITY":0.00012386,"INCLINATION":53.217,"RA_OF_ASC_NODE":307.5263,"ARG_OF_PERICENTER":90.2593,"MEAN_ANOMALY":269.8541,"EPHEMERIS_TYPE":0,"CLASSIFICATION_TYPE":"U","NORAD_CAT_ID":53851,"ELEMENT_SET_NO":999,"REV_AT_EPOCH":16830,"BSTAR":3.81028e-6,"MEAN_MOTION_DOT":-2.27e-6,"MEAN_MOTION_DDOT":0},{"OBJECT_NAME":"STARLINK-4797","OBJECT_ID":"2022-114AL","EPOCH":"2025-09-27T06:44:47.342400","MEAN_MOTION":15.08840416,"ECCENTRICITY":0.00013722,"INCLINATION":53.2175,"RA_OF_ASC_NODE":302.6217,"ARG_OF_PERICENTER":97.5583,"MEAN_ANOMALY":262.5565,"EPHEMERIS_TYPE":0,"CLASSIFICATION_TYPE":"U","NORAD_CAT_ID":53852,"ELEMENT_SET_NO":999,"REV_AT_EPOCH":16837,"BSTAR":7.3645045e-5,"MEAN_MOTION_DOT":8.84e-6,"MEAN_MOTION_DDOT":0},{"OBJECT_NAME":"STARLINK-4794","OBJECT_ID":"2022-114AM","EPOCH":"2025-09-27T06:14:57.175872","MEAN_MOTION":15.08843196,"ECCENTRICITY":0.00014524,"INCLINATION":53.2173,"RA_OF_ASC_NODE":307.4823,"ARG_OF_PERICENTER":81.4571,"MEAN_ANOMALY":278.6586,"EPHEMERIS_TYPE":0,"CLASSIFICATION_TYPE":"U","NORAD_CAT_ID":53853,"ELEMENT_SET_NO":999,"REV_AT_EPOCH":16830,"BSTAR":0.00019303349,"MEAN_MOTION_DOT":2.786e-5,"MEAN_MOTION_DDOT":0},{"OBJECT_NAME":"STARLINK-4800","OBJECT_ID":"2022-114AN","EPOCH":"2025-09-27T05:49:51.828672","MEAN_MOTION":15.08834848,"ECCENTRICITY":0.00013942,"INCLINATION":53.2169,"RA_OF_ASC_NODE":298.0974,"ARG_OF_PERICENTER":99.1347,"MEAN_ANOMALY":260.9803,"EPHEMERIS_TYPE":0,"CLASSIFICATION_TYPE":"U","NORAD_CAT_ID":53854,"ELEMENT_SET_NO":999,"REV_AT_EPOCH":16843,"BSTAR":3.089838e-5,"MEAN_MOTION_DOT":2.04e-6,"MEAN_MOTION_DDOT":0},{"OBJECT_NAME":"STARLINK-4703","OBJECT_ID":"2022-114AP","EPOCH":"2025-09-27T06:21:37.799712","MEAN_MOTION":15.08842799,"ECCENTRICITY":0.00016693,"INCLINATION":53.2165,"RA_OF_ASC_NODE":307.5082,"ARG_OF_PERICENTER":89.7098,"MEAN_ANOMALY":270.4085,"EPHEMERIS_TYPE":0,"CLASSIFICATION_TYPE":"U","NORAD_CAT_ID":53855,"ELEMENT_SET_NO":999,"REV_AT_EPOCH":16830,"BSTAR":0.00014573735,"MEAN_MOTION_DOT":2.032e-5,"MEAN_MOTION_DDOT":0},{"OBJECT_NAME":"STARLINK-4795","OBJECT_ID":"2022-114AQ","EPOCH":"2025-09-27T07:04:02.007552","MEAN_MOTION":15.08832615,"ECCENTRICITY":0.00014377,"INCLINATION":53.2166,"RA_OF_ASC_NODE":297.7104,"ARG_OF_PERICENTER":86.8365,"MEAN_ANOMALY":273.2792,"EPHEMERIS_TYPE":0,"CLASSIFICATION_TYPE":"U","NORAD_CAT_ID":53856,"ELEMENT_SET_NO":999,"REV_AT_EPOCH":16844,"BSTAR":0.00023074633,"MEAN_MOTION_DOT":3.386e-5,"MEAN_MOTION_DDOT":0},{"OBJECT_NAME":"STARLINK-4809","OBJECT_ID":"2022-114AR","EPOCH":"2025-09-27T05:59:01.046688","MEAN_MOTION":15.08840949,"ECCENTRICITY":0.00013835,"INCLINATION":53.2173,"RA_OF_ASC_NODE":307.4115,"ARG_OF_PERICENTER":97.165,"MEAN_ANOMALY":262.9499,"EPHEMERIS_TYPE":0,"CLASSIFICATION_TYPE":"U","NORAD_CAT_ID":53857,"ELEMENT_SET_NO":999,"REV_AT_EPOCH":16830,"BSTAR":3.5999878e-5,"MEAN_MOTION_DOT":2.85e-6,"MEAN_MOTION_DDOT":0},{"OBJECT_NAME":"STARLINK-4798","OBJECT_ID":"2022-114AS","EPOCH":"2025-09-27T05:44:33.250272","MEAN_MOTION":15.08839914,"ECCENTRICITY":0.00013556,"INCLINATION":53.2165,"RA_OF_ASC_NODE":298.0779,"ARG_OF_PERICENTER":92.7092,"MEAN_ANOMALY":267.4055,"EPHEMERIS_TYPE":0,"CLASSIFICATION_TYPE":"U","NORAD_CAT_ID":53858,"ELEMENT_SET_NO":999,"REV_AT_EPOCH":16843,"BSTAR":4.6233282e-5,"MEAN_MOTION_DOT":4.48e-6,"MEAN_MOTION_DDOT":0}]
